ONEWEB-0278             
1 48996U 21060AF  26117.27189218  .00000073  00000+0  15836-3 0  9995
2 48996  87.9087 238.8846 0001681 105.5774 254.5543 13.16593949232994
ONEWEB-0279             
1 48997U 21060AG  26117.27979948 -.00000020  00000+0 -85367-4 0  9994
2 48997  87.9083 238.8816 0002085  96.2186 263.9183 13.16595687232928
ONEWEB-0280             
1 48998U 21060AH  26117.29483896 -.00000008  00000+0 -54521-4 0  9993
2 48998  87.9081 238.8834 0001601  93.8732 266.2582 13.16593730232869
ONEWEB-0281             
1 48999U 21060AJ  26117.30038869  .00000055  00000+0  11121-3 0  9990
2 48999  87.9083 238.8766 0001878 103.3063 256.8278 13.16598686232936
ONEWEB-0282             
1 49000U 21060AK  26117.02648823  .00000105  00000+0  24017-3 0  9994
2 49000  87.9080 238.9410 0001840  96.9841 263.1499 13.16593969232872
ONEWEB-0283             
1 49001U 21060AL  26117.31938532  .00000051  00000+0  10051-3 0  9999
2 49001  87.9080 238.8824 0002014  97.6348 262.5012 13.16594755232929
ONEWEB-0284             
1 49002U 21060AM  26117.31305118  .00000027  00000+0  36636-4 0  9999
2 49002  87.9082 238.8760 0001549  99.2049 260.9257 13.16594987232907
ONEWEB-0285             
1 49075U 21075A   26117.21008376  .00000329  00000+0  87917-3 0  9992
2 49075  87.8995   0.7914 0001785  77.2690 282.8638 13.12442604228529
ONEWEB-0286             
1 49076U 21075B   26117.19215830  .00000381  00000+0  10243-2 0  9990
2 49076  87.8984   0.8170 0001716  87.9447 272.1878 13.12443759227872
ONEWEB-0287             
1 49077U 21075C   26117.21348169  .00000034  00000+0  54503-4 0  9990
2 49077  87.9183  15.9948 0001594  93.2931 266.8383 13.17648278226910
ONEWEB-0288             
1 49078U 21075D   26117.16855612 -.00000615  00000+0 -17454-2 0  9990
2 49078  87.8997   0.7934 0001525  85.1386 274.9917 13.12444030228491
ONEWEB-0289             
1 49079U 21075E   26117.25215948  .00000089  00000+0  19593-3 0  9993
2 49079  87.9188  16.0017 0001624  67.5905 292.5398 13.17648800227492
ONEWEB-0290             
1 49080U 21075F   26117.22529613  .00000085  00000+0  18699-3 0  9991
2 49080  87.9190  15.9770 0001662  62.9302 297.1999 13.17652093226905
ONEWEB-0291             
1 49081U 21075G   26117.21010668  .00000065  00000+0  13386-3 0  9992
2 49081  87.9193  15.9884 0001453  82.6001 277.5295 13.17648274226893
ONEWEB-0293             
1 49082U 21075H   26117.23541114  .00001219  00000+0  31058-2 0  9997
2 49082  87.9175  15.9900 0001748  70.0182 290.1138 13.17650864226920
ONEWEB-0294             
1 49083U 21075J   26117.17534933 -.00000150  00000+0 -45343-3 0  9990
2 49083  87.8997   0.7954 0001602  70.4439 289.6862 13.12444623227883
ONEWEB-0295             
1 49084U 21075K   26117.23457450  .00000031  00000+0  46134-4 0  9992
2 49084  87.9182  15.9946 0001500  85.6911 274.4392 13.17649910226880
