[{"OBJECT_NAME":"ONEWEB-0278","OBJECT_ID":"2021-060AF","EPOCH":"2026-04-27T06:31:31.484352","MEAN_MOTION":13.16593949,"ECCENTRICITY":0.0001681,"INCLINATION":87.9087,"RA_OF_ASC_NODE":238.8846,"ARG_OF_PERICENTER":105.5774,"MEAN_ANOMALY":254.5543,"EPHEMERIS_TYPE":0,"CLASSIFICATION_TYPE":"U","NORAD_CAT_ID":48996,"ELEMENT_SET_NO":999,"REV_AT_EPOCH":23299,"BSTAR":0.00015836,"MEAN_MOTION_DOT":7.3e-07,"MEAN_MOTION_DDOT":0.0},{"OBJECT_NAME":"ONEWEB-0279","OBJECT_ID":"2021-060AG","EPOCH":"2026-04-27T06:42:54.675072","MEAN_MOTION":13.16595687,"ECCENTRICITY":0.0002085,"INCLINATION":87.9083,"RA_OF_ASC_NODE":238.8816,"ARG_OF_PERICENTER":96.2186,"MEAN_ANOMALY":263.9183,"EPHEMERIS_TYPE":0,"CLASSIFICATION_TYPE":"U","NORAD_CAT_ID":48997,"ELEMENT_SET_NO":999,"REV_AT_EPOCH":23292,"BSTAR":-8.536700000000001e-05,"MEAN_MOTION_DOT":-2e-07,"MEAN_MOTION_DDOT":0.0},{"OBJECT_NAME":"ONEWEB-0280","OBJECT_ID":"2021-060AH","EPOCH":"2026-04-27T07:04:34.086144","MEAN_MOTION":13.1659373,"ECCENTRICITY":0.0001601,"INCLINATION":87.9081,"RA_OF_ASC_NODE":238.8834,"ARG_OF_PERICENTER":93.8732,"MEAN_ANOMALY":266.2582,"EPHEMERIS_TYPE":0,"CLASSIFICATION_TYPE":"U","NORAD_CAT_ID":48998,"ELEMENT_SET_NO":999,"REV_AT_EPOCH":23286,"BSTAR":-5.4521e-05,"MEAN_MOTION_DOT":-8e-08,"MEAN_MOTION_DDOT":0.0},{"OBJECT_NAME":"ONEWEB-0281","OBJECT_ID":"2021-060AJ","EPOCH":"2026-04-27T07:12:33.582816","MEAN_MOTION":13.16598686,"ECCENTRICITY":0.0001878,"INCLINATION":87.9083,"RA_OF_ASC_NODE":238.8766,"ARG_OF_PERICENTER":103.3063,"MEAN_ANOMALY":256.8278,"EPHEMERIS_TYPE":0,"CLASSIFICATION_TYPE":"U","NORAD_CAT_ID":48999,"ELEMENT_SET_NO":999,"REV_AT_EPOCH":23293,"BSTAR":0.00011121,"MEAN_MOTION_DOT":5.5e-07,"MEAN_MOTION_DDOT":0.0},{"OBJECT_NAME":"ONEWEB-0282","OBJECT_ID":"2021-060AK","EPOCH":"2026-04-27T00:38:08.583072","MEAN_MOTION":13.16593969,"ECCENTRICITY":0.000184,"INCLINATION":87.908,"RA_OF_ASC_NODE":238.941,"ARG_OF_PERICENTER":96.9841,"MEAN_ANOMALY":263.1499,"EPHEMERIS_TYPE":0,"CLASSIFICATION_TYPE":"U","NORAD_CAT_ID":49000,"ELEMENT_SET_NO":999,"REV_AT_EPOCH":23287,"BSTAR":0.00024017,"MEAN_MOTION_DOT":1.05e-06,"MEAN_MOTION_DDOT":0.0},{"OBJECT_NAME":"ONEWEB-0283","OBJECT_ID":"2021-060AL","EPOCH":"2026-04-27T07:39:54.891648","MEAN_MOTION":13.16594755,"ECCENTRICITY":0.0002014,"INCLINATION":87.908,"RA_OF_ASC_NODE":238.8824,"ARG_OF_PERICENTER":97.6348,"MEAN_ANOMALY":262.5012,"EPHEMERIS_TYPE":0,"CLASSIFICATION_TYPE":"U","NORAD_CAT_ID":49001,"ELEMENT_SET_NO":999,"REV_AT_EPOCH":23292,"BSTAR":0.00010051,"MEAN_MOTION_DOT":5.1e-07,"MEAN_MOTION_DDOT":0.0},{"OBJECT_NAME":"ONEWEB-0284","OBJECT_ID":"2021-060AM","EPOCH":"2026-04-27T07:30:47.621952","MEAN_MOTION":13.16594987,"ECCENTRICITY":0.0001549,"INCLINATION":87.9082,"RA_OF_ASC_NODE":238.876,"ARG_OF_PERICENTER":99.2049,"MEAN_ANOMALY":260.9257,"EPHEMERIS_TYPE":0,"CLASSIFICATION_TYPE":"U","NORAD_CAT_ID":49002,"ELEMENT_SET_NO":999,"REV_AT_EPOCH":23290,"BSTAR":3.6636000000000006e-05,"MEAN_MOTION_DOT":2.7e-07,"MEAN_MOTION_DDOT":0.0},{"OBJECT_NAME":"ONEWEB-0285","OBJECT_ID":"2021-075A","EPOCH":"2026-04-27T05:02:31.236864","MEAN_MOTION":13.12442604,"ECCENTRICITY":0.0001785,"INCLINATION":87.8995,"RA_OF_ASC_NODE":0.7914,"ARG_OF_PERICENTER":77.269,"MEAN_ANOMALY":282.8638,"EPHEMERIS_TYPE":0,"CLASSIFICATION_TYPE":"U","NORAD_CAT_ID":49075,"ELEMENT_SET_NO":999,"REV_AT_EPOCH":22852,"BSTAR":0.00087917,"MEAN_MOTION_DOT":3.29e-06,"MEAN_MOTION_DDOT":0.0},{"OBJECT_NAME":"ONEWEB-0286","OBJECT_ID":"2021-075B","EPOCH":"2026-04-27T04:36:42.477120","MEAN_MOTION":13.12443759,"ECCENTRICITY":0.0001716,"INCLINATION":87.8984,"RA_OF_ASC_NODE":0.817,"ARG_OF_PERICENTER":87.9447,"MEAN_ANOMALY":272.1878,"EPHEMERIS_TYPE":0,"CLASSIFICATION_TYPE":"U","NORAD_CAT_ID":49076,"ELEMENT_SET_NO":999,"REV_AT_EPOCH":22787,"BSTAR":0.0010243,"MEAN_MOTION_DOT":3.81e-06,"MEAN_MOTION_DDOT":0.0},{"OBJECT_NAME":"ONEWEB-0287","OBJECT_ID":"2021-075C","EPOCH":"2026-04-27T05:07:24.818016","MEAN_MOTION":13.17648278,"ECCENTRICITY":0.0001594,"INCLINATION":87.9183,"RA_OF_ASC_NODE":15.9948,"ARG_OF_PERICENTER":93.2931,"MEAN_ANOMALY":266.8383,"EPHEMERIS_TYPE":0,"CLASSIFICATION_TYPE":"U","NORAD_CAT_ID":49077,"ELEMENT_SET_NO":999,"REV_AT_EPOCH":22691,"BSTAR":5.4503e-05,"MEAN_MOTION_DOT":3.4e-07,"MEAN_MOTION_DDOT":0.0},{"OBJECT_NAME":"ONEWEB-0288","OBJECT_ID":"2021-075D","EPOCH":"2026-04-27T04:02:43.248768","MEAN_MOTION":13.1244403,"ECCENTRICITY":0.0001525,"INCLINATION":87.8997,"RA_OF_ASC_NODE":0.7934,"ARG_OF_PERICENTER":85.1386,"MEAN_ANOMALY":274.9917,"EPHEMERIS_TYPE":0,"CLASSIFICATION_TYPE":"U","NORAD_CAT_ID":49078,"ELEMENT_SET_NO":999,"REV_AT_EPOCH":22849,"BSTAR":-0.0017454,"MEAN_MOTION_DOT":-6.15e-06,"MEAN_MOTION_DDOT":0.0},{"OBJECT_NAME":"ONEWEB-0289","OBJECT_ID":"2021-075E","EPOCH":"2026-04-27T06:03:06.579072","MEAN_MOTION":13.176488,"ECCENTRICITY":0.0001624,"INCLINATION":87.9188,"RA_OF_ASC_NODE":16.0017,"ARG_OF_PERICENTER":67.5905,"MEAN_ANOMALY":292.5398,"EPHEMERIS_TYPE":0,"CLASSIFICATION_TYPE":"U","NORAD_CAT_ID":49079,"ELEMENT_SET_NO":999,"REV_AT_EPOCH":22749,"BSTAR":0.00019593,"MEAN_MOTION_DOT":8.9e-07,"MEAN_MOTION_DDOT":0.0},{"OBJECT_NAME":"ONEWEB-0290","OBJECT_ID":"2021-075F","EPOCH":"2026-04-27T05:24:25.585632","MEAN_MOTION":13.17652093,"ECCENTRICITY":0.0001662,"INCLINATION":87.919,"RA_OF_ASC_NODE":15.977,"ARG_OF_PERICENTER":62.9302,"MEAN_ANOMALY":297.1999,"EPHEMERIS_TYPE":0,"CLASSIFICATION_TYPE":"U","NORAD_CAT_ID":49080,"ELEMENT_SET_NO":999,"REV_AT_EPOCH":22690,"BSTAR":0.00018699,"MEAN_MOTION_DOT":8.5e-07,"MEAN_MOTION_DDOT":0.0},{"OBJECT_NAME":"ONEWEB-0291","OBJECT_ID":"2021-075G","EPOCH":"2026-04-27T05:02:33.217152","MEAN_MOTION":13.17648274,"ECCENTRICITY":0.0001453,"INCLINATION":87.9193,"RA_OF_ASC_NODE":15.9884,"ARG_OF_PERICENTER":82.6001,"MEAN_ANOMALY":277.5295,"EPHEMERIS_TYPE":0,"CLASSIFICATION_TYPE":"U","NORAD_CAT_ID":49081,"ELEMENT_SET_NO":999,"REV_AT_EPOCH":22689,"BSTAR":0.00013386000000000002,"MEAN_MOTION_DOT":6.5e-07,"MEAN_MOTION_DDOT":0.0},{"OBJECT_NAME":"ONEWEB-0293","OBJECT_ID":"2021-075H","EPOCH":"2026-04-27T05:38:59.522496","MEAN_MOTION":13.17650864,"ECCENTRICITY":0.0001748,"INCLINATION":87.9175,"RA_OF_ASC_NODE":15.99,"ARG_OF_PERICENTER":70.0182,"MEAN_ANOMALY":290.1138,"EPHEMERIS_TYPE":0,"CLASSIFICATION_TYPE":"U","NORAD_CAT_ID":49082,"ELEMENT_SET_NO":999,"REV_AT_EPOCH":22692,"BSTAR":0.0031058,"MEAN_MOTION_DOT":1.219e-05,"MEAN_MOTION_DDOT":0.0},{"OBJECT_NAME":"ONEWEB-0294","OBJECT_ID":"2021-075J","EPOCH":"2026-04-27T04:12:30.182112","MEAN_MOTION":13.12444623,"ECCENTRICITY":0.0001602,"INCLINATION":87.8997,"RA_OF_ASC_NODE":0.7954,"ARG_OF_PERICENTER":70.4439,"MEAN_ANOMALY":289.6862,"EPHEMERIS_TYPE":0,"CLASSIFICATION_TYPE":"U","NORAD_CAT_ID":49083,"ELEMENT_SET_NO":999,"REV_AT_EPOCH":22788,"BSTAR":-0.00045343,"MEAN_MOTION_DOT":-1.5e-06,"MEAN_MOTION_DDOT":0.0},{"OBJECT_NAME":"ONEWEB-0295","OBJECT_ID":"2021-075K","EPOCH":"2026-04-27T05:37:47.236800","MEAN_MOTION":13.1764991,"ECCENTRICITY":0.00015,"INCLINATION":87.9182,"RA_OF_ASC_NODE":15.9946,"ARG_OF_PERICENTER":85.6911,"MEAN_ANOMALY":274.4392,"EPHEMERIS_TYPE":0,"CLASSIFICATION_TYPE":"U","NORAD_CAT_ID":49084,"ELEMENT_SET_NO":999,"REV_AT_EPOCH":22688,"BSTAR":4.6134e-05,"MEAN_MOTION_DOT":3.1e-07,"MEAN_MOTION_DDOT":0.0}]